{"type": "FeatureCollection", "features": [ {"type": "Feature", "properties": {"norad_id": 35442, "name": "COSMOS 2251 DEB", "group": "cosmos-2251-debris", "lat": -47.371146999231286, "lon": 86.72542406685355, "alt_km": 624.8117144371399, "timestamp": "2025-12-09T20:37:09.685871+00:00", "meta": {"OBJECT_NAME": "COSMOS 2251 DEB", "OBJECT_ID": "1993-036AKL", "EPOCH": "2025-12-09T14:22:23.975904", "MEAN_MOTION": 14.84229139, "ECCENTRICITY": 0.00038668, "INCLINATION": 74.0279, "RA_OF_ASC_NODE": 105.3704, "ARG_OF_PERICENTER": 102.501, "MEAN_ANOMALY": 257.6601, "EPHEMERIS_TYPE": 0, "CLASSIFICATION_TYPE": "U", "NORAD_CAT_ID": 35442, "ELEMENT_SET_NO": 999, "REV_AT_EPOCH": 87306, "BSTAR": 0.0036553965, "MEAN_MOTION_DOT": 0.00030716, "MEAN_MOTION_DDOT": 0}, "tle": {"line1": "1 35442U 93036AKL 25343.59888861  .00030716  00000+0  36554-2 0  9990", "line2": "2 35442  74.0279 105.3704 0003866 102.5010 257.6601 14.84229139873065"}}, "geometry": {"type": "Point", "coordinates": [86.72542406685355, -47.371146999231286]}}, {"type": "Feature", "properties": {"norad_id": 35443, "name": "COSMOS 2251 DEB", "group": "cosmos-2251-debris", "lat": -36.49971371986139, "lon": 169.70460275977524, "alt_km": 591.0463050814715, "timestamp": "2025-12-09T20:37:09.685882+00:00", "meta": {"OBJECT_NAME": "COSMOS 2251 DEB", "OBJECT_ID": "1993-036AKM", "EPOCH": "2025-12-08T06:44:44.274336", "MEAN_MOTION": 14.96147372, "ECCENTRICITY": 0.00733753, "INCLINATION": 73.988, "RA_OF_ASC_NODE": 340.6328, "ARG_OF_PERICENTER": 123.8306, "MEAN_ANOMALY": 236.9892, "EPHEMERIS_TYPE": 0, "CLASSIFICATION_TYPE": "U", "NORAD_CAT_ID": 35443, "ELEMENT_SET_NO": 999, "REV_AT_EPOCH": 86811, "BSTAR": 0.0035457848, "MEAN_MOTION_DOT": 0.00042371, "MEAN_MOTION_DDOT": 0}, "tle": {"line1": "1 35443U 93036AKM 25342.28106799  .00042371  00000+0  35458-2 0  9991", "line2": "2 35443  73.9880 340.6328 0073375 123.8306 236.9892 14.96147372868117"}}, "geometry": {"type": "Point", "coordinates": [169.70460275977524, -36.49971371986139]}}, {"type": "Feature", "properties": {"norad_id": 35445, "name": "COSMOS 2251 DEB", "group": "cosmos-2251-debris", "lat": -72.40451953243114, "lon": -118.99403371805411, "alt_km": 746.1113438688117, "timestamp": "2025-12-09T20:37:09.685893+00:00", "meta": {"OBJECT_NAME": "COSMOS 2251 DEB", "OBJECT_ID": "1993-036AKP", "EPOCH": "2025-12-08T05:29:59.522496", "MEAN_MOTION": 14.58996884, "ECCENTRICITY": 0.01436419, "INCLINATION": 74.0379, "RA_OF_ASC_NODE": 308.6026, "ARG_OF_PERICENTER": 36.7325, "MEAN_ANOMALY": 324.3579, "EPHEMERIS_TYPE": 0, "CLASSIFICATION_TYPE": "U", "NORAD_CAT_ID": 35445, "ELEMENT_SET_NO": 999, "REV_AT_EPOCH": 87263, "BSTAR": 0.0025418237, "MEAN_MOTION_DOT": 0.00013775, "MEAN_MOTION_DDOT": 0}, "tle": {"line1": "1 35445U 93036AKP 25342.22916114  .00013775  00000+0  25418-2 0  9998", "line2": "2 35445  74.0379 308.6026 0143641  36.7325 324.3579 14.58996884872634"}}, "geometry": {"type": "Point", "coordinates": [-118.99403371805411, -72.40451953243114]}}, {"type": "Feature", "properties": {"norad_id": 35446, "name": "COSMOS 2251 DEB", "group": "cosmos-2251-debris", "lat": 0.599785522843812, "lon": -36.196734935093225, "alt_km": 705.4900837052464, "timestamp": "2025-12-09T20:37:09.685905+00:00", "meta": {"OBJECT_NAME": "COSMOS 2251 DEB", "OBJECT_ID": "1993-036AKQ", "EPOCH": "2025-12-05T17:34:52.262112", "MEAN_MOTION": 14.54618421, "ECCENTRICITY": 0.00744002, "INCLINATION": 74.0466, "RA_OF_ASC_NODE": 331.4309, "ARG_OF_PERICENTER": 91.6694, "MEAN_ANOMALY": 269.2992, "EPHEMERIS_TYPE": 0, "CLASSIFICATION_TYPE": "U", "NORAD_CAT_ID": 35446, "ELEMENT_SET_NO": 999, "REV_AT_EPOCH": 87906, "BSTAR": 0.00018901942, "MEAN_MOTION_DOT": 8.08e-06, "MEAN_MOTION_DDOT": 0}, "tle": {"line1": "1 35446U 93036AKQ 25339.73254933  .00000808  00000+0  18902-3 0  9999", "line2": "2 35446  74.0466 331.4309 0074400  91.6694 269.2992 14.54618421879069"}}, "geometry": {"type": "Point", "coordinates": [-36.196734935093225, 0.599785522843812]}}, {"type": "Feature", "properties": {"norad_id": 35448, "name": "COSMOS 2251 DEB", "group": "cosmos-2251-debris", "lat": -42.122021009467424, "lon": -69.86307737123535, "alt_km": 713.0964252916974, "timestamp": "2025-12-09T20:37:09.685916+00:00", "meta": {"OBJECT_NAME": "COSMOS 2251 DEB", "OBJECT_ID": "1993-036AKS", "EPOCH": "2025-12-08T08:55:07.122144", "MEAN_MOTION": 14.54200662, "ECCENTRICITY": 0.00113673, "INCLINATION": 73.9041, "RA_OF_ASC_NODE": 97.835, "ARG_OF_PERICENTER": 278.6106, "MEAN_ANOMALY": 81.3768, "EPHEMERIS_TYPE": 0, "CLASSIFICATION_TYPE": "U", "NORAD_CAT_ID": 35448, "ELEMENT_SET_NO": 999, "REV_AT_EPOCH": 87271, "BSTAR": 0.0016168374, "MEAN_MOTION_DOT": 6.829e-05, "MEAN_MOTION_DDOT": 0}, "tle": {"line1": "1 35448U 93036AKS 25342.37161021  .00006829  00000+0  16168-2 0  9990", "line2": "2 35448  73.9041  97.8350 0011367 278.6106  81.3768 14.54200662872718"}}, "geometry": {"type": "Point", "coordinates": [-69.86307737123535, -42.122021009467424]}}, {"type": "Feature", "properties": {"norad_id": 35451, "name": "COSMOS 2251 DEB", "group": "cosmos-2251-debris", "lat": 51.12434554333908, "lon": -92.05781934940734, "alt_km": 473.40948769709485, "timestamp": "2025-12-09T20:37:09.685927+00:00", "meta": {"OBJECT_NAME": "COSMOS 2251 DEB", "OBJECT_ID": "1993-036AKV", "EPOCH": "2025-12-09T15:22:56.436672", "MEAN_MOTION": 15.35084641, "ECCENTRICITY": 0.00406747, "INCLINATION": 73.9323, "RA_OF_ASC_NODE": 109.3607, "ARG_OF_PERICENTER": 356.1857, "MEAN_ANOMALY": 3.9031, "EPHEMERIS_TYPE": 0, "CLASSIFICATION_TYPE": "U", "NORAD_CAT_ID": 35451, "ELEMENT_SET_NO": 999, "REV_AT_EPOCH": 67358, "BSTAR": 0.0018985298, "MEAN_MOTION_DOT": 0.00066961, "MEAN_MOTION_DDOT": 0}, "tle": {"line1": "1 35451U 93036AKV 25343.64093098  .00066961  00000+0  18985-2 0  9995", "line2": "2 35451  73.9323 109.3607 0040674 356.1857   3.9031 15.35084641673581"}}, "geometry": {"type": "Point", "coordinates": [-92.05781934940734, 51.12434554333908]}}, {"type": "Feature", "properties": {"norad_id": 35453, "name": "COSMOS 2251 DEB", "group": "cosmos-2251-debris", "lat": 73.27949896786173, "lon": 98.3456800224172, "alt_km": 745.2607437043725, "timestamp": "2025-12-09T20:37:09.685938+00:00", "meta": {"OBJECT_NAME": "COSMOS 2251 DEB", "OBJECT_ID": "1993-036AKX", "EPOCH": "2025-12-02T12:53:58.122528", "MEAN_MOTION": 14.3790654, "ECCENTRICITY": 0.00680216, "INCLINATION": 74.0102, "RA_OF_ASC_NODE": 39.1945, "ARG_OF_PERICENTER": 175.6131, "MEAN_ANOMALY": 184.5634, "EPHEMERIS_TYPE": 0, "CLASSIFICATION_TYPE": "U", "NORAD_CAT_ID": 35453, "ELEMENT_SET_NO": 999, "REV_AT_EPOCH": 86072, "BSTAR": 0.00098540606, "MEAN_MOTION_DOT": 3.03e-05, "MEAN_MOTION_DDOT": 0}, "tle": {"line1": "1 35453U 93036AKX 25336.53747827  .00003030  00000+0  98541-3 0  9998", "line2": "2 35453  74.0102  39.1945 0068021 175.6131 184.5634 14.37906540860721"}}, "geometry": {"type": "Point", "coordinates": [98.3456800224172, 73.27949896786173]}}, {"type": "Feature", "properties": {"norad_id": 35455, "name": "COSMOS 2251 DEB", "group": "cosmos-2251-debris", "lat": -1.6372106548689112, "lon": 120.67987417929055, "alt_km": 781.8407269272957, "timestamp": "2025-12-09T20:37:09.685948+00:00", "meta": {"OBJECT_NAME": "COSMOS 2251 DEB", "OBJECT_ID": "1993-036AKZ", "EPOCH": "2025-12-09T14:49:18.254496", "MEAN_MOTION": 14.49343184, "ECCENTRICITY": 0.00989408, "INCLINATION": 74.0284, "RA_OF_ASC_NODE": 300.6641, "ARG_OF_PERICENTER": 44.9536, "MEAN_ANOMALY": 315.958, "EPHEMERIS_TYPE": 0, "CLASSIFICATION_TYPE": "U", "NORAD_CAT_ID": 35455, "ELEMENT_SET_NO": 999, "REV_AT_EPOCH": 86498, "BSTAR": 0.0024474157, "MEAN_MOTION_DOT": 9.937e-05, "MEAN_MOTION_DDOT": 0}, "tle": {"line1": "1 35455U 93036AKZ 25343.61757239  .00009937  00000+0  24474-2 0  9990", "line2": "2 35455  74.0284 300.6641 0098940  44.9536 315.9580 14.49343184864987"}}, "geometry": {"type": "Point", "coordinates": [120.67987417929055, -1.6372106548689112]}}, {"type": "Feature", "properties": {"norad_id": 35456, "name": "COSMOS 2251 DEB", "group": "cosmos-2251-debris", "lat": -24.461940869890192, "lon": 115.55994802057853, "alt_km": 622.2750763235099, "timestamp": "2025-12-09T20:37:09.685959+00:00", "meta": {"OBJECT_NAME": "COSMOS 2251 DEB", "OBJECT_ID": "1993-036ALA", "EPOCH": "2025-12-07T16:26:35.520576", "MEAN_MOTION": 14.69275987, "ECCENTRICITY": 0.0065481, "INCLINATION": 73.9502, "RA_OF_ASC_NODE": 127.3161, "ARG_OF_PERICENTER": 338.308, "MEAN_ANOMALY": 21.5318, "EPHEMERIS_TYPE": 0, "CLASSIFICATION_TYPE": "U", "NORAD_CAT_ID": 35456, "ELEMENT_SET_NO": 999, "REV_AT_EPOCH": 65801, "BSTAR": 0.0028319025, "MEAN_MOTION_DOT": 0.00017275, "MEAN_MOTION_DDOT": 0}, "tle": {"line1": "1 35456U 93036ALA 25341.68513334  .00017275  00000+0  28319-2 0  9998", "line2": "2 35456  73.9502 127.3161 0065481 338.3080  21.5318 14.69275987658019"}}, "geometry": {"type": "Point", "coordinates": [115.55994802057853, -24.461940869890192]}}, {"type": "Feature", "properties": {"norad_id": 35459, "name": "COSMOS 2251 DEB", "group": "cosmos-2251-debris", "lat": -31.428931071086428, "lon": -177.54728770583898, "alt_km": 784.2494320739679, "timestamp": "2025-12-09T20:37:09.685970+00:00", "meta": {"OBJECT_NAME": "COSMOS 2251 DEB", "OBJECT_ID": "1993-036ALD", "EPOCH": "2025-12-09T07:24:36.534816", "MEAN_MOTION": 14.37454593, "ECCENTRICITY": 0.00164026, "INCLINATION": 73.8701, "RA_OF_ASC_NODE": 193.6613, "ARG_OF_PERICENTER": 142.7231, "MEAN_ANOMALY": 217.5063, "EPHEMERIS_TYPE": 0, "CLASSIFICATION_TYPE": "U", "NORAD_CAT_ID": 35459, "ELEMENT_SET_NO": 999, "REV_AT_EPOCH": 58312, "BSTAR": 0.00040700402, "MEAN_MOTION_DOT": 1.192e-05, "MEAN_MOTION_DDOT": 0}, "tle": {"line1": "1 35459U 93036ALD 25343.30875619  .00001192  00000+0  40700-3 0  9999", "line2": "2 35459  73.8701 193.6613 0016402 142.7231 217.5063 14.37454593583124"}}, "geometry": {"type": "Point", "coordinates": [-177.54728770583898, -31.428931071086428]}}]}